STARLINK-32431          
1 61256U 24175P   26060.52573852  .00000274  00000+0  21355-4 0  9992
2 61256  53.1580 231.9609 0000321  72.0612 288.0423 15.30198305 80200
STARLINK-32432          
1 61257U 24175Q   26060.46359135 -.00000141  00000+0  73504-5 0  9990
2 61257  53.1575 232.2841 0001155  95.2705 264.8427 15.30197159 80193
STARLINK-32382          
1 61258U 24175R   26060.46677933 -.00001354  00000+0 -33628-4 0  9990
2 61258  53.1579 232.3035 0001352  85.0706 275.0449 15.30176939 80192
STARLINK-32435          
1 61259U 24175S   26060.47414563  .00000817  00000+0  39724-4 0  9994
2 61259  53.1594 232.3523 0001341  85.8232 274.2922 15.30196604 80190
STARLINK-32474          
1 61260U 24175T   26060.45413723 -.00002103  00000+0 -58993-4 0  9992
2 61260  53.1594 232.2237 0001097  89.1522 270.9605 15.30149507 80191
STARLINK-32447          
1 61261U 24175U   26060.52258941 -.00000467  00000+0 -36244-5 0  9997
2 61261  53.1592 231.9422 0001458  67.1494 292.9661 15.30180124 80205
STARLINK-32446          
1 61262U 24175V   26060.47097904  .00002137  00000+0  84286-4 0  9994
2 61262  53.1589 232.3302 0001030 100.8094 259.3023 15.30181317 80193
STARLINK-32174          
1 61509U 24183A   26060.46602856 -.00000234  00000+0  42060-5 0  9996
2 61509  53.1605 167.8428 0000874  20.6161 339.4875 15.30177762 78579
STARLINK-32139          
1 61510U 24183B   26060.47290206 -.00001246  00000+0 -29958-4 0  9996
2 61510  53.1601 180.6753 0001204  89.8724 270.2414 15.30183837 78392
STARLINK-32140          
1 61511U 24183C   26060.52133442  .00002842  00000+0  10810-3 0  9998
2 61511  53.1605 180.2627 0001245  91.3225 268.7918 15.30183352 78407
STARLINK-32201          
1 61512U 24183D   26060.46179549  .00001059  00000+0  47872-4 0  9998
2 61512  53.1609 167.8161 0001322 101.4253 258.6897 15.30196578 78572
STARLINK-32030          
1 61513U 24183E   26060.47924235 -.00000565  00000+0 -69661-5 0  9994
2 61513  53.1600 180.7139 0001483  96.6971 263.4199 15.30181790 78392
STARLINK-31837          
1 61514U 24183F   26060.33593642  .00001414  00000+0  59865-4 0  9990
2 61514  53.1601 181.2285 0000999  70.0188 290.0921 15.30196537 78371
STARLINK-32136          
1 61515U 24183G   26060.48873197  .00000719  00000+0  36398-4 0  9996
2 61515  53.1603 180.7725 0001393  56.5343 303.5790 15.30195600 78394
STARLINK-32047          
1 61516U 24183H   26060.33278483 -.00001281  00000+0 -31135-4 0  9999
2 61516  53.1602 181.2093 0001725  89.8373 270.2825 15.30178800 78379
STARLINK-31756          
1 61517U 24183J   26060.50455629  .00000631  00000+0  33450-4 0  9996
2 61517  53.1582 180.8121 0000929 103.0129 257.0976 15.30186672 78395
STARLINK-32172          
1 61518U 24183K   26060.32960931  .00001519  00000+0  63421-4 0  9991
2 61518  53.1611 181.1888 0001251  93.5719 266.5425 15.30190991 78371
STARLINK-32338          
1 61519U 24183L   26060.51816396  .00000876  00000+0  41692-4 0  9999
2 61519  53.1595 180.2302 0001111  95.9884 264.1243 15.30192613 78407
STARLINK-32306          
1 61520U 24183M   26060.51500395 -.00002280  00000+0 -64861-4 0  9996
2 61520  53.1582 180.2138 0002040  76.5788 283.5440 15.30194340 78405
STARLINK-32297          
1 61521U 24183N   26060.51183620 -.00000538  00000+0 -60532-5 0  9991
2 61521  53.1596 180.1901 0001228 148.5621 211.5453 15.30184296 78405
STARLINK-32260          
1 61522U 24183P   26060.50867397  .00001132  00000+0  50360-4 0  9997
2 61522  53.1603 180.1706 0001150  91.7295 268.3837 15.30184687 78408
STARLINK-32305          
1 61523U 24183Q   26060.47607714  .00000002  00000+0  12208-4 0  9993
2 61523  53.1604 180.6803 0001201  80.1070 280.0066 15.30180575 78398
STARLINK-32296          
1 61524U 24183R   26060.50551263 -.00000733  00000+0 -12631-4 0  9998
2 61524  53.1586 180.1534 0000962  65.1891 294.9210 15.30179286 78405
STARLINK-32298          
1 61525U 24183S   26060.50234203  .00000705  00000+0  35915-4 0  9998
2 61525  53.1621 180.1303 0000899  97.2187 262.8916 15.30188305 78402
STARLINK-32293          
1 61526U 24183T   26060.49928215  .00000577  00000+0  31605-4 0  9999
2 61526  53.1603 180.8213 0000982  83.6236 276.4877 15.30196069 78398
STARLINK-32313          
1 61527U 24183U   26060.49295726 -.00000757  00000+0 -13440-4 0  9993
2 61527  53.1607 180.7822 0001426 118.3749 241.7395 15.30187247 78395
STARLINK-32319          
1 61528U 24183V   26060.49823333  .00000336  00000+0  23456-4 0  9994
2 61528  53.1597 180.8158 0000846  87.2929 272.8168 15.30185059 78398
STARLINK-32351          
1 61529U 24183W   26060.33211857  .00003307  00000+0  12367-3 0  9999
2 61529  53.1595 178.3821 0001036  83.5820 276.5298 15.30211516 78413
STARLINK-32261          
1 61530U 24183X   26060.48239958  .00004062  00000+0  14916-3 0  9990
2 61530  53.1594 180.7317 0001072  60.6868 299.4240 15.30208171 78390
STARLINK-32358          
1 61531U 24183Y   26060.33488635  .00001142  00000+0  50677-4 0  9994
2 61531  53.1610 181.2316 0001112  89.5406 270.5722 15.30193099 78373
