OBJECT_NAME,OBJECT_ID,EPOCH,MEAN_MOTION,ECCENTRICITY,INCLINATION,RA_OF_ASC_NODE,ARG_OF_PERICENTER,MEAN_ANOMALY,EPHEMERIS_TYPE,CLASSIFICATION_TYPE,NORAD_CAT_ID,ELEMENT_SET_NO,REV_AT_EPOCH,BSTAR,MEAN_MOTION_DOT,MEAN_MOTION_DDOT
STARLINK-32431,2024-175P,2026-03-01T12:37:03.808128,15.30198305,.0000321,53.1580,231.9609,72.0612,288.0423,0,U,61256,999,8020,.21355E-4,.274E-5,0
STARLINK-32432,2024-175Q,2026-03-01T11:07:34.292640,15.30197159,.0001155,53.1575,232.2841,95.2705,264.8427,0,U,61257,999,8019,.73504E-5,-.141E-5,0
STARLINK-32382,2024-175R,2026-03-01T11:12:09.734112,15.30176939,.0001352,53.1579,232.3035,85.0706,275.0449,0,U,61258,999,8019,-.33628E-4,-.1354E-4,0
STARLINK-32435,2024-175S,2026-03-01T11:22:46.182432,15.30196604,.0001341,53.1594,232.3523,85.8232,274.2922,0,U,61259,999,8019,.39724E-4,.817E-5,0
STARLINK-32474,2024-175T,2026-03-01T10:53:57.456672,15.30149507,.0001097,53.1594,232.2237,89.1522,270.9605,0,U,61260,999,8019,-.58993E-4,-.2103E-4,0
STARLINK-32447,2024-175U,2026-03-01T12:32:31.725024,15.30180124,.0001458,53.1592,231.9422,67.1494,292.9661,0,U,61261,999,8020,-.36244E-5,-.467E-5,0
STARLINK-32446,2024-175V,2026-03-01T11:18:12.589056,15.30181317,.000103,53.1589,232.3302,100.8094,259.3023,0,U,61262,999,8019,.84286E-4,.2137E-4,0
STARLINK-32174,2024-183A,2026-03-01T11:11:04.867584,15.30177762,.0000874,53.1605,167.8428,20.6161,339.4875,0,U,61509,999,7857,.4206E-5,-.234E-5,0
STARLINK-32139,2024-183B,2026-03-01T11:20:58.737984,15.30183837,.0001204,53.1601,180.6753,89.8724,270.2414,0,U,61510,999,7839,-.29958E-4,-.1246E-4,0
STARLINK-32140,2024-183C,2026-03-01T12:30:43.293888,15.30183352,.0001245,53.1605,180.2627,91.3225,268.7918,0,U,61511,999,7840,.1081E-3,.2842E-4,0
STARLINK-32201,2024-183D,2026-03-01T11:04:59.130336,15.30196578,.0001322,53.1609,167.8161,101.4253,258.6897,0,U,61512,999,7857,.47872E-4,.1059E-4,0
STARLINK-32030,2024-183E,2026-03-01T11:30:06.539040,15.30181790,.0001483,53.1600,180.7139,96.6971,263.4199,0,U,61513,999,7839,-.69661E-5,-.565E-5,0
STARLINK-31837,2024-183F,2026-03-01T08:03:44.906688,15.30196537,.0000999,53.1601,181.2285,70.0188,290.0921,0,U,61514,999,7837,.59865E-4,.1414E-4,0
STARLINK-32136,2024-183G,2026-03-01T11:43:46.442208,15.30195600,.0001393,53.1603,180.7725,56.5343,303.5790,0,U,61515,999,7839,.36398E-4,.719E-5,0
STARLINK-32047,2024-183H,2026-03-01T07:59:12.609312,15.30178800,.0001725,53.1602,181.2093,89.8373,270.2825,0,U,61516,999,7837,-.31135E-4,-.1281E-4,0
STARLINK-31756,2024-183J,2026-03-01T12:06:33.663456,15.30186672,.0000929,53.1582,180.8121,103.0129,257.0976,0,U,61517,999,7839,.3345E-4,.631E-5,0
STARLINK-32172,2024-183K,2026-03-01T07:54:38.244384,15.30190991,.0001251,53.1611,181.1888,93.5719,266.5425,0,U,61518,999,7837,.63421E-4,.1519E-4,0
STARLINK-32338,2024-183L,2026-03-01T12:26:09.366144,15.30192613,.0001111,53.1595,180.2302,95.9884,264.1243,0,U,61519,999,7840,.41692E-4,.876E-5,0
STARLINK-32306,2024-183M,2026-03-01T12:21:36.341280,15.30194340,.000204,53.1582,180.2138,76.5788,283.5440,0,U,61520,999,7840,-.64861E-4,-.228E-4,0
STARLINK-32297,2024-183N,2026-03-01T12:17:02.647680,15.30184296,.0001228,53.1596,180.1901,148.5621,211.5453,0,U,61521,999,7840,-.60532E-5,-.538E-5,0
STARLINK-32260,2024-183P,2026-03-01T12:12:29.431008,15.30184687,.000115,53.1603,180.1706,91.7295,268.3837,0,U,61522,999,7840,.5036E-4,.1132E-4,0
STARLINK-32305,2024-183Q,2026-03-01T11:25:33.064896,15.30180575,.0001201,53.1604,180.6803,80.1070,280.0066,0,U,61523,999,7839,.12208E-4,.2E-7,0
STARLINK-32296,2024-183R,2026-03-01T12:07:56.291232,15.30179286,.0000962,53.1586,180.1534,65.1891,294.9210,0,U,61524,999,7840,-.12631E-4,-.733E-5,0
STARLINK-32298,2024-183S,2026-03-01T12:03:22.351392,15.30188305,.0000899,53.1621,180.1303,97.2187,262.8916,0,U,61525,999,7840,.35915E-4,.705E-5,0
STARLINK-32293,2024-183T,2026-03-01T11:58:57.977760,15.30196069,.0000982,53.1603,180.8213,83.6236,276.4877,0,U,61526,999,7839,.31605E-4,.577E-5,0
STARLINK-32313,2024-183U,2026-03-01T11:49:51.507264,15.30187247,.0001426,53.1607,180.7822,118.3749,241.7395,0,U,61527,999,7839,-.1344E-4,-.757E-5,0
STARLINK-32319,2024-183V,2026-03-01T11:57:27.359712,15.30185059,.0000846,53.1597,180.8158,87.2929,272.8168,0,U,61528,999,7839,.23456E-4,.336E-5,0
STARLINK-32351,2024-183W,2026-03-01T07:58:15.044448,15.30211516,.0001036,53.1595,178.3821,83.5820,276.5298,0,U,61529,999,7841,.12367E-3,.3307E-4,0
STARLINK-32261,2024-183X,2026-03-01T11:34:39.323712,15.30208171,.0001072,53.1594,180.7317,60.6868,299.4240,0,U,61530,999,7839,.14916E-3,.4062E-4,0
STARLINK-32358,2024-183Y,2026-03-01T08:02:14.180640,15.30193099,.0001112,53.1610,181.2316,89.5406,270.5722,0,U,61531,999,7837,.50677E-4,.1142E-4,0
